ADRAS-J                 
1 58992U 24034A   24073.51962958  .00007334  00000+0  57029-3 0  9999
2 58992  98.2032  42.2952 0045894   6.1953 353.9827 15.00774140  3589
